OBJECT_NAME,OBJECT_ID,EPOCH,MEAN_MOTION,ECCENTRICITY,INCLINATION,RA_OF_ASC_NODE,ARG_OF_PERICENTER,MEAN_ANOMALY,EPHEMERIS_TYPE,CLASSIFICATION_TYPE,NORAD_CAT_ID,ELEMENT_SET_NO,REV_AT_EPOCH,BSTAR,MEAN_MOTION_DOT,MEAN_MOTION_DDOT
STARLINK-38039,2026-147R,2026-07-04T14:00:01.999872,15.89799055,.00011542,97.2841,221.3659,104.7788,202.3661,0,U,69719,999,213,-.70984923E-2,-.2068922E-1,.11361971E-2
STARLINK-38003,2026-147S,2026-07-04T14:00:01.999872,15.90005022,.0001184,97.2839,221.3668,105.1443,204.6049,0,U,69720,999,213,-.70262715E-2,-.2069129E-1,.11387756E-2
STARLINK-38014,2026-147T,2026-07-04T14:00:01.999872,15.90215985,.00011675,97.2840,221.3678,105.0244,206.9354,0,U,69721,999,213,-.68718899E-2,-.20455E-1,.11167826E-2
STARLINK-37915,2026-147U,2026-07-04T14:00:01.999872,15.90406793,.00010999,97.2842,221.3689,105.0666,209.4253,0,U,69722,999,213,-.67576829E-2,-.2031079E-1,.11041396E-2
STARLINK-38007,2026-147V,2026-07-04T14:00:01.999872,15.89471018,.00010229,97.2841,221.3688,106.4318,208.0103,0,U,69723,999,213,-.8826224E-2,-.2525576E-1,.16576173E-2
STARLINK-38008,2026-147W,2026-07-04T14:00:01.999872,15.90818004,.00012363,97.2842,221.3709,101.3955,217.4380,0,U,69724,999,213,-.65247703E-2,-.2002605E-1,.10797017E-2
STARLINK-38021,2026-147X,2026-07-04T14:00:01.999872,15.90989784,.00011901,97.2840,221.3721,105.4613,216.0181,0,U,69725,999,213,-.64412241E-2,-.1994338E-1,.10732115E-2
STARLINK-38015,2026-147Y,2026-07-04T14:00:01.999872,15.91174663,.00011576,97.2841,221.3730,98.7731,224.9515,0,U,69726,999,213,-.63402388E-2,-.1981732E-1,.10625012E-2
STARLINK-38010,2026-147Z,2026-07-04T14:00:01.999872,15.91358507,.00010908,97.2840,221.3739,104.3496,221.6054,0,U,69727,999,213,-.62214315E-2,-.1963083E-1,.10457595E-2
SXM-11,2026-148A,2026-07-02T18:38:30.146784,2.87966624,.6817708,26.8166,144.0522,178.2879,186.7543,0,U,69728,999,14,0,-.235E-5,0
HAIYANG-2E,2026-149A,2026-07-04T06:42:18.852768,13.80975314,.00075972,99.3513,192.3452,219.2566,140.8036,0,U,69737,999,32,-.6119502E+0,-.616275E-2,0
