STARLINK-38039          
1 69719U 26147R   26185.58335648 -.02068922  11362-2 -70985-2 0  9993
2 69719  97.2841 221.3659 0001154 104.7788 202.3661 15.89799055  2133
STARLINK-38003          
1 69720U 26147S   26185.58335648 -.02069129  11388-2 -70263-2 0  9992
2 69720  97.2839 221.3668 0001184 105.1443 204.6049 15.90005022  2139
STARLINK-38014          
1 69721U 26147T   26185.58335648 -.02045500  11168-2 -68719-2 0  9999
2 69721  97.2840 221.3678 0001167 105.0244 206.9354 15.90215985  2137
STARLINK-37915          
1 69722U 26147U   26185.58335648 -.02031079  11041-2 -67577-2 0  9997
2 69722  97.2842 221.3689 0001099 105.0666 209.4253 15.90406793  2139
STARLINK-38007          
1 69723U 26147V   26185.58335648 -.02525576  16576-2 -88262-2 0  9990
2 69723  97.2841 221.3688 0001022 106.4318 208.0103 15.89471018  2132
STARLINK-38008          
1 69724U 26147W   26185.58335648 -.02002605  10797-2 -65248-2 0  9992
2 69724  97.2842 221.3709 0001236 101.3955 217.4380 15.90818004  2139
STARLINK-38021          
1 69725U 26147X   26185.58335648 -.01994338  10732-2 -64412-2 0  9996
2 69725  97.2840 221.3721 0001190 105.4613 216.0181 15.90989784  2135
STARLINK-38015          
1 69726U 26147Y   26185.58335648 -.01981732  10625-2 -63402-2 0  9990
2 69726  97.2841 221.3730 0001157  98.7731 224.9515 15.91174663  2137
STARLINK-38010          
1 69727U 26147Z   26185.58335648 -.01963083  10458-2 -62214-2 0  9994
2 69727  97.2840 221.3739 0001090 104.3496 221.6054 15.91358507  2137
SXM-11                  
1 69728U 26148A   26183.77673781 -.00000235  00000+0  00000+0 0  9998
2 69728  26.8166 144.0522 6817708 178.2879 186.7543  2.87966624   149
HAIYANG-2E              
1 69737U 26149A   26185.27938487 -.00616275  00000+0 -61195+0 0  9993
2 69737  99.3513 192.3452 0007597 219.2566 140.8036 13.80975314   327
